GLOBALSTAR M023         
1 25621U 99004A   25318.72285403 -.00000019  00000+0  47310-3 0  9996
2 25621  52.0117 315.0541 0010349  98.9428  72.3998 12.62508797234745
GLOBALSTAR M040         
1 25622U 99004B   25318.75650617 -.00000054  00000+0  27936-3 0  9994
2 25622  51.9928 319.3285 0001006  16.3018 154.9731 12.62022614234263
GLOBALSTAR M036         
1 25623U 99004C   25318.42893243  .00000018  00000+0  14694-2 0  9998
2 25623  51.9948 204.3117 0010770 342.7030 188.3636 11.86616419196811
GLOBALSTAR M038         
1 25624U 99004D   25318.87737571 -.00000054  00000+0  33971-3 0  9990
2 25624  52.0000 357.5981 0001725  16.6269 154.8356 12.32535726220957
GLOBALSTAR M022         
1 25649U 99012A   25318.55021574 -.00000033  00000+0  64686-3 0  9994
2 25649  52.0038 242.1439 0003177  97.7755  72.5728 12.02506409194463
GLOBALSTAR M041         
1 25650U 99012B   25318.73309611 -.00000044  00000+0  53885-3 0  9998
2 25650  51.9989 127.6862 0000471 215.8625 144.2180 11.96680826196300
GLOBALSTAR M046         
1 25651U 99012C   25318.84944902 -.00000066  00000+0  25243-3 0  9990
2 25651  52.0028 185.9658 0001736 163.1449 280.7819 12.09414407201892
GLOBALSTAR M037         
1 25652U 99012D   25318.27656174 -.00000057  00000+0  26074-3 0  9992
2 25652  52.0002  86.9734 0002676 144.7699 224.0641 12.62454671230236
